# From MPC106342
C/1995 O1 (Hale-Bopp),e,89.0527,283.2250,130.7726,182.5196,0.0003997,0.99490811,0.0000,03/29.4463/1997,2000,g -2.0,4.0
# From NK 1615
P/1996 R2 (Lagerkvist),e,2.6009,40.0505,333.2893,3.772782,0.1344966,0.31343093,353.7511,12/27.0/2018,2000,g 11.5,4.0
# From MPC 30063
P/1997 B1 (Kobayashi),e,12.3479,328.9350,183.4160,8.554334,0.0393935,0.76034364,313.2194,12/27.0/2018,2000,g 15.0,2.0
# From MPC 75703
P/1998 VS24 (LINEAR),e,5.0224,159.0412,244.8931,4.533737,0.1020986,0.24161327,34.9380,12/27.0/2018,2000,g 13.0,2.0
# From NK 1780
P/1999 D1 (Hermann),e,21.3207,348.7776,174.1114,5.761580,0.0712675,0.71300796,156.8261,12/27.0/2018,2000,g 15.0,4.0
# From CCO 17
P/1999 R1 (SOHO),e,11.4728,352.0237,56.4404,2.510231,0.2478185,0.97985931,0.0000,08/31.4352/2019,2000,g 27.0,6.0
# From NK 731
P/1999 RO28 (LONEOS),e,7.5642,137.8909,231.2617,3.427303,0.1553372,0.67188490,331.8834,12/27.0/2018,2000,g 20.0,2.0
# From MPC 75704
P/1999 XN120 (Catalina),e,5.0297,285.2959,161.9955,4.179555,0.1153477,0.21105740,64.9145,12/27.0/2018,2000,g 13.5,2.0
# From NK 744
P/2000 R2 (LINEAR),e,11.6828,160.3190,176.4437,3.465376,0.1527842,0.53153458,333.6790,12/27.0/2018,2000,g 18.0,4.0
# From MPC 73461
P/2000 S4 (LINEAR-Spacewatch),e,28.3740,173.8083,173.0557,7.117297,0.0519077,0.68166734,345.8004,12/27.0/2018,2000,g 17.5,2.0
# From MPC 75704
P/2001 BB50 (LINEAR-NEAT),e,10.3572,351.1999,193.6515,5.738212,0.0717033,0.58679139,112.9842,12/27.0/2018,2000,g 13.0,4.0
# From MPC 43019
P/2001 H5 (NEAT),e,8.3750,328.6987,224.8334,6.096503,0.0654761,0.59970508,76.1131,12/27.0/2018,2000,g 12.0,4.0
# From MPC 75704
P/2001 Q6 (NEAT),e,56.8678,22.0314,43.0463,7.939217,0.0440593,0.82260458,276.6674,12/27.0/2018,2000,g 13.5,4.0
# From MPC 47727
P/2002 EJ57 (LINEAR),e,4.9768,330.4308,167.0339,6.461208,0.0600114,0.59337051,11.4867,12/27.0/2018,2000,g 12.5,4.0
# From MPC109588
P/2002 T5 (LINEAR),e,30.8589,123.1025,326.9045,6.991737,0.0533122,0.43718735,302.1152,12/27.0/2018,2000,g  8.0,4.0
# From MPC109588
P/2002 T6 (NEAT-LINEAR),e,10.8638,207.3558,218.9198,7.649414,0.0465867,0.55927326,265.0128,12/27.0/2018,2000,g 10.5,4.0
# From MPC 75007
C/2002 VQ94 (LINEAR),e,70.4550,34.9081,100.2084,189.7973,0.0003769,0.96402730,1.7762,12/27.0/2018,2000,g  9.5,2.0
# From MPC 50354
P/2003 F2 (NEAT),e,11.6044,359.0956,191.7895,6.489221,0.0596232,0.54227601,340.9304,12/27.0/2018,2000,g 16.5,2.0
# From MPC 75704
P/2003 L1 (Scotti),e,9.0206,226.0644,354.8114,6.718772,0.0565938,0.25313422,328.2663,12/27.0/2018,2000,g  8.5,4.0
# From MPC 50139
P/2003 QX29 (NEAT),e,11.3898,264.6032,37.1772,8.046941,0.0431775,0.47203455,255.7952,12/27.0/2018,2000,g  8.5,4.0
# From MPC 99268
P/2003 T12 (SOHO),e,11.0462,174.8914,219.5191,2.585864,0.2370257,0.77071971,242.3320,12/27.0/2018,2000,g 17.0,4.0
# From MPC 75705
P/2003 U3 (NEAT),e,7.0097,347.9877,356.8368,5.054668,0.0867291,0.50920199,133.0179,12/27.0/2018,2000,g 13.5,4.0
# From MPC 82312
P/2004 A1 (LONEOS),e,10.5553,124.8792,21.6945,7.941253,0.0440424,0.31057211,230.1091,12/27.0/2018,2000,g  6.5,4.0
# From MPC 54558
P/2004 DO29 (Spacewatch-LINEAR),e,14.5319,147.4406,40.7525,7.278781,0.0501899,0.44231158,260.3655,12/27.0/2018,2000,g 13.5,2.0
# From MPC 54823
P/2004 FY140 (LINEAR),e,2.1359,326.7784,242.3667,4.896596,0.0909626,0.16981601,113.5931,12/27.0/2018,2000,g 12.5,2.0
# From MPC 53304
P/2004 R3 (LINEAR-NEAT),e,12.7817,305.7747,40.7402,4.743676,0.0953963,0.26055977,262.8819,12/27.0/2018,2000,g 14.5,4.0
# From MPC 55521
P/2004 V3 (Siding Spring),e,50.3880,356.0976,322.2032,7.149421,0.0515582,0.44567146,267.6306,12/27.0/2018,2000,g 11.5,4.0
# From MPC 75705
P/2004 V5 (LINEAR-Hill),e,19.3529,47.7187,88.0313,7.963494,0.0438580,0.44451665,221.4976,12/27.0/2018,2000,g  8.0,4.0
# From MPC 75705
P/2004 WR9 (LINEAR),e,4.9304,24.8864,72.0385,6.144565,0.0647094,0.68270990,330.1251,12/27.0/2018,2000,g 14.5,4.0
# From MPC 54164
P/2005 E1 (Tubbiolo),e,4.2648,335.6304,194.2185,7.031672,0.0528587,0.37600200,268.1538,12/27.0/2018,2000,g 10.0,4.0
# From MPEC 2018-X49
P/2005 GF8 (LONEOS),e,1.1923,314.9070,285.3847,5.854205,0.0695828,0.51641412,340.7771,12/27.0/2018,2000,g 12.5,4.0
# From MPC 79019
P/2005 J1 (McNaught),e,31.7696,268.7958,338.9178,3.568887,0.1461857,0.57033595,10.9817,12/27.0/2018,2000,g 16.5,4.0
# From MPC 75705
P/2005 JD108 (Catalina-NEAT),e,3.2819,223.8086,90.0223,6.507274,0.0593752,0.37547352,294.5042,12/27.0/2018,2000,g 10.0,4.0
# From MPC 74246
P/2005 L1 (McNaught),e,7.7363,138.2385,149.4891,3.978417,0.1242049,0.20887024,230.6993,12/27.0/2018,2000,g  9.5,4.0
# From MPC 87062
C/2005 L3 (McNaught),e,139.5476,288.7763,47.1967,3482,0.0000048,0.99838751,0.0000,01/10.7999/2008,2000,g  4.0,4.0
# From MPC 75706
P/2005 S2 (Skiff),e,3.1354,161.1738,229.5469,8.019035,0.0434031,0.19574212,199.8530,12/27.0/2018,2000,g  7.5,4.0
# From MPC 75706
P/2005 SB216 (LONEOS),e,24.0543,1.3378,83.5024,7.118975,0.0518893,0.46264932,225.7951,12/27.0/2018,2000,g 12.0,2.0
# From MPC 55717
P/2005 T2 (Christensen),e,8.2933,260.1693,59.0039,3.845236,0.1307132,0.41714154,298.7188,12/27.0/2018,2000,g 14.5,4.0
# From MPC 73461
P/2005 T3 (Read),e,6.2378,27.9075,8.0529,7.560452,0.0474114,0.17223234,226.1715,12/27.0/2018,2000,g  9.0,4.0
# From MPC 73461
P/2005 T4 (SWAN),e,160.0879,25.4277,41.3372,9.357002,0.0344349,0.93076441,166.5463,12/27.0/2018,2000,g 15.0,4.0
# From MPC 75706
P/2005 T5 (Broughton),e,21.3362,57.0262,304.4817,7.294065,0.0500322,0.55071148,241.6650,12/27.0/2018,2000,g 11.0,4.0
# From MPC 56954
P/2005 W3 (Kowalski),e,16.4109,210.2309,200.2972,6.343718,0.0616862,0.54282137,298.3894,12/27.0/2018,2000,g 12.0,4.0
# From MPC 75706
P/2005 XA54 (LONEOS-Hill),e,17.1214,143.7048,15.1653,6.049043,0.0662482,0.71038194,309.3747,12/27.0/2018,2000,g 14.0,4.0
# From MPC 75706
P/2005 Y2 (McNaught),e,19.1096,94.5182,194.3079,6.340831,0.0617284,0.46703387,318.9192,12/27.0/2018,2000,g  9.0,4.0
# From MPC 75707
P/2006 F1 (Kowalski),e,21.2782,124.7435,186.2498,4.671328,0.0976211,0.12049215,27.9493,12/27.0/2018,2000,g  8.0,4.0
# From MPC 56954
P/2006 F4 (Spacewatch),e,12.3884,184.0322,31.1646,3.525766,0.1488757,0.33802692,327.4268,12/27.0/2018,2000,g 15.0,4.0
# From MPC 58118
P/2006 H1 (McNaught),e,12.8119,359.9966,309.2726,5.777692,0.0709696,0.58099667,335.4640,12/27.0/2018,2000,g 12.5,4.0
# From MPC 75707
P/2006 HR30 (Siding Spring),e,31.8597,309.8127,117.4066,7.809892,0.0451582,0.84153098,198.1494,12/27.0/2018,2000,g 11.0,4.0
# From MPC 73914
C/2006 K4 (NEAT),e,111.5083,116.6958,233.6804,1115,0.0000265,0.99713080,0.0000,11/24.9355/2007,2000,g  6.0,4.0
# From MPC 82313
C/2006 OF2 (Broughton),h,09/09.7223/2008,30.1573,318.6209,95.7210,1.001551,2.451573,2000,5.5,4.0
# From MPC112388
C/2006 Q1 (McNaught),e,59.1171,199.3780,344.5451,2751,0.0000068,0.99898997,0.0000,07/03.5817/2008,2000,g  5.0,4.0
# From MPC 73461
P/2006 R1 (Siding Spring),e,160.0707,218.8347,249.2813,5.635766,0.0736673,0.70486332,332.4592,12/27.0/2018,2000,g 16.0,4.0
# From MPC 69905
P/2006 S1 (Christensen),e,12.3298,207.9088,133.6263,3.543829,0.1477389,0.59975382,315.3188,12/27.0/2018,2000,g 17.5,4.0
# From MPC105235
C/2006 S3 (LONEOS),h,04/12.7047/2012,166.0226,38.3500,140.1451,1.000031,5.151270,2000,2.0,4.0
# From MPC 75707
P/2006 S4 (Christensen),e,39.5710,36.1112,305.3009,6.293037,0.0624329,0.50677202,290.3118,12/27.0/2018,2000,g 11.0,4.0
# From MPC 60465
C/2006 S5 (Hill),e,10.1009,281.5468,182.2535,96.40723,0.0010412,0.97244376,0.0000,12/03.1280/2007,2000,g  8.0,4.0
# From MPC 66204
C/2006 U6 (Spacewatch),e,84.7942,180.1137,276.7079,2075,0.0000104,0.99878571,0.0000,05/30.6163/2008,2000,g  8.0,4.0
# From MPC 62580
C/2006 V1 (Catalina),e,31.3482,335.4383,253.1658,159.6079,0.0004888,0.98336721,0.0000,11/28.3197/2007,2000,g  8.0,4.0
# From MPC105235
P/2006 W1 (Gibbs),e,18.5322,152.3617,232.1678,5.821959,0.0701617,0.70770945,327.4686,12/27.0/2018,2000,g 12.0,4.0
# From MPC 82313
C/2006 W3 (Christensen),e,127.0750,113.3653,133.1761,3333,0.0000051,0.99906634,0.0000,07/04.4694/2009,2000,g  5.0,4.0
# From MPC 75707
P/2007 A2 (Christensen),e,26.4957,300.9278,186.8814,6.314121,0.0621205,0.55765138,270.9340,12/27.0/2018,2000,g 13.5,4.0
# From MPC 59319
P/2007 B1 (Christensen),e,12.3778,77.6648,46.8525,5.811981,0.0703425,0.58080008,306.4830,12/27.0/2018,2000,g 13.5,4.0
# From MPC112388
C/2007 B2 (Skiff),e,27.5595,14.7178,206.2143,695.9789,0.0000537,0.99572436,0.0000,08/24.3284/2008,2000,g  6.0,4.0
# From MPC 75707
P/2007 C2 (Catalina),e,8.7179,275.8273,179.4804,7.015608,0.0530403,0.46541953,218.9724,12/27.0/2018,2000,g 10.0,4.0
# From MPC 84315
C/2007 D1 (LINEAR),e,41.4957,171.0412,340.3005,2249,0.0000092,0.99607108,0.0000,06/14.9198/2007,2000,g  3.5,4.0
# From MPC 66464
C/2007 G1 (LINEAR),e,88.6476,79.0303,223.8919,9676,0.0000010,0.99972668,0.0000,11/15.8116/2008,2000,g  5.5,4.0
# From MPC 82314
P/2007 K2 (Gibbs),e,7.6538,188.6494,347.5350,7.254812,0.0504388,0.68475621,212.5304,12/27.0/2018,2000,g 14.0,4.0
# From MPC 82314
C/2007 K3 (Siding Spring),e,16.4168,263.1816,23.3019,1798,0.0000129,0.99887455,0.0000,04/24.3750/2008,2000,g  9.5,4.0
# From MPC 87475
C/2007 M1 (McNaught),e,139.7539,326.8694,52.6743,1143,0.0000255,0.99345280,0.0000,08/05.5320/2008,2000,g  6.0,4.0
# From MPC112388
C/2007 M2 (Catalina),e,80.9852,357.2393,220.7448,1843,0.0000125,0.99807613,0.0000,12/11.5110/2008,2000,g  8.0,4.0
# From MPC 73461
C/2007 N3 (Lulin),e,178.3761,338.2357,136.7203,1803,0.0000129,0.99931825,0.0000,01/09.7719/2009,2000,g  6.5,4.0
# From MPC 60925
P/2007 Q2 (Gilmore),e,10.2073,172.2347,162.8686,5.640426,0.0735760,0.66992301,308.3968,12/27.0/2018,2000,g 16.0,4.0
# From MPC 78183
C/2007 Q3 (Siding Spring),h,10/06.4530/2009,65.5452,149.4291,2.2851,1.000572,2.271045,2000,4.5,4.0
# From MPC 75514
P/2007 R1 (Larson),e,7.7429,180.5336,174.9708,6.070803,0.0658923,0.28847724,278.1836,12/27.0/2018,2000,g  8.0,4.0
# From MPC 75708
P/2007 R2 (Gibbs),e,1.2219,11.7068,352.3391,3.569060,0.1461751,0.54397889,268.0792,12/27.0/2018,2000,g 17.0,4.0
# From MPC 75708
